{"epoch":1784710044,"count":18256,"objects":[{"id":"69808","name":"QIANFAN-209","type":"PAYLOAD","l1":"1 69808U 26153J   26202.57835183  .00000077  00000-0  29535-4 0  9992","l2":"2 69808  88.9930 358.3159 0008366 156.0727 204.0854 14.19691125  2458"},{"id":"69809","name":"QIANFAN-210","type":"PAYLOAD","l1":"1 69809U 26153K   26202.57338061 -.02104282  00000-0 -11212+1 0  9992","l2":"2 69809  88.9925 358.3153 0014710 173.7647 186.3727 14.17626608  2457"},{"id":"69810","name":"QIANFAN-211","type":"PAYLOAD","l1":"1 69810U 26153L   26202.57263155  .00000077  00000-0  29324-4 0  9995","l2":"2 69810  88.9929 358.3145 0007907 157.1281 203.0263 14.20224166  2453"},{"id":"69811","name":"QIANFAN-212","type":"PAYLOAD","l1":"1 69811U 26153M   26202.56653117  .00000080  00000-0  30316-4 0  9993","l2":"2 69811  88.9931 358.3137 0009040 161.9335 198.2178 14.20819522  2457"},{"id":"69812","name":"QIANFAN-213","type":"PAYLOAD","l1":"1 69812U 26153N   26198.90858230 -.02004805  00000-0 -98228+0 0  9993","l2":"2 69812  88.9917 358.7338 0007827 155.5754 204.5809 14.21939575  1930"},{"id":"69813","name":"QIANFAN-214","type":"PAYLOAD","l1":"1 69813U 26153P   26202.55791826  .00000090  00000-0  32024-4 0  9993","l2":"2 69813  88.9929 358.3124 0008625 162.6131 197.5359 14.25492071  2456"},{"id":"69814","name":"QIANFAN-215","type":"PAYLOAD","l1":"1 69814U 26153Q   26202.55590888  .00000093  00000-0  32301-4 0  9990","l2":"2 69814  88.9928 358.3118 0008635 164.4954 195.6506 14.26680018  2457"},{"id":"69815","name":"QIANFAN-216","type":"PAYLOAD","l1":"1 69815U 26153R   26202.55589468  .00000210  00000-0  80806-4 0  9997","l2":"2 69815  88.9929 358.3121 0008870 164.7989 195.3473 14.26677160  2459"},{"id":"69816","name":"QIANFAN-217","type":"PAYLOAD","l1":"1 69816U 26153S   26202.55523477  .00000092  00000-0  32106-4 0  9994","l2":"2 69816  88.9928 358.3118 0008385 162.2753 197.8735 14.26768573  2455"},{"id":"69817","name":"QIANFAN-218","type":"PAYLOAD","l1":"1 69817U 26153T   26202.55472966  .00000191  00000-0  72930-4 0  9990","l2":"2 69817  88.9930 358.3123 0008153 159.7536 200.3983 14.26812339  2453"},{"id":"69848","name":"QIANFAN-219","type":"PAYLOAD","l1":"1 69848U 26155A   26202.60866685 -.02001298  00000-0 -10032+1 0  9991","l2":"2 69848  89.0055  60.2163 0031991 200.2836 159.7086 14.20460017  2290"},{"id":"69849","name":"QIANFAN-220","type":"PAYLOAD","l1":"1 69849U 26155B   26202.57659489 -.01987538  00000-0 -11149+1 0  9999","l2":"2 69849  89.0055  60.2299 0031921 198.9688 161.0313 14.14401525  2282"},{"id":"69850","name":"QIANFAN-221","type":"PAYLOAD","l1":"1 69850U 26155C   26202.60436645 -.01566197  00000-0 -77153+0 0  9992","l2":"2 69850  89.0058  60.2154 0030417 208.0661 151.8891 14.21088984  2297"},{"id":"69851","name":"QIANFAN-222","type":"PAYLOAD","l1":"1 69851U 26155D   26202.56939870  .00000054  00000-0  19268-4 0  9996","l2":"2 69851  89.0062  60.2287 0029188 201.9716 158.0224 14.18562778  2288"},{"id":"69852","name":"QIANFAN-223","type":"PAYLOAD","l1":"1 69852U 26155E   26202.56379134  .00000054  00000-0  19240-4 0  9998","l2":"2 69852  89.0065  60.2281 0029086 201.4568 158.5404 14.18585437  2285"},{"id":"69853","name":"QIANFAN-224","type":"PAYLOAD","l1":"1 69853U 26155F   26202.55965781  .00000057  00000-0  20100-4 0  9997","l2":"2 69853  89.0049  60.2256 0030105 201.8588 158.1320 14.20219802  2286"}]}